[{"OBJECT_NAME":"DONGPO 04","OBJECT_ID":"2022-098H","EPOCH":"2026-03-09T16:03:40.489632","MEAN_MOTION":15.80228754,"ECCENTRICITY":0.00028545,"INCLINATION":97.5491,"RA_OF_ASC_NODE":200.2842,"ARG_OF_PERICENTER":268.3337,"MEAN_ANOMALY":91.7603,"EPHEMERIS_TYPE":0,"CLASSIFICATION_TYPE":"U","NORAD_CAT_ID":53451,"ELEMENT_SET_NO":999,"REV_AT_EPOCH":19957,"BSTAR":0.0010368789,"MEAN_MOTION_DOT":0.00197723,"MEAN_MOTION_DDOT":0},{"OBJECT_NAME":"STARLINK-35808","OBJECT_ID":"2026-041N","EPOCH":"2026-03-09T22:00:01.999584","MEAN_MOTION":15.92597118,"ECCENTRICITY":6.189e-5,"INCLINATION":53.1591,"RA_OF_ASC_NODE":61.0553,"ARG_OF_PERICENTER":103.4366,"MEAN_ANOMALY":245.8742,"EPHEMERIS_TYPE":0,"CLASSIFICATION_TYPE":"U","NORAD_CAT_ID":68052,"ELEMENT_SET_NO":999,"REV_AT_EPOCH":237,"BSTAR":-0.0045333642,"MEAN_MOTION_DOT":-0.01582108,"MEAN_MOTION_DDOT":0.00070963305}]
